ORBCOMM FM37            
1 33064U 08031E   25281.96822793  .00002224  00000+0  31698-3 0  9991
2 33064  48.4381 162.5623 0005110 148.1638 233.0326 14.80215431930908
ORBCOMM FM40            
1 33065U 08031F   25281.90387898  .00002759  00000+0  36562-3 0  9996
2 33065  48.4396 144.9582 0006381 162.6444 210.7370 14.82596962931039
VESSELSAT 1             
1 37840U 11058C   25281.92723863  .00000397  00000+0  71903-4 0  9997
2 37840  19.9611 125.6321 0013629 358.0751   1.9599 14.11377865722390
ORBCOMM FM109           
1 40086U 14040A   25281.85229405  .00000995  00000+0  24924-3 0  9996
2 40086  47.0029 199.4062 0001065 161.1177 198.9749 14.58370519597651
ORBCOMM FM107           
1 40087U 14040B   25281.87499906  .00000871  00000+0  22224-3 0  9998
2 40087  47.0046 200.2158 0000646  45.5913 314.5025 14.58447841597730
ORBCOMM FM106           
1 40088U 14040C   25281.56713909  .00001715  00000+0  31537-3 0  9992
2 40088  47.0610  14.6618 0017605 235.0259 124.8979 14.69758732600155
ORBCOMM FM111           
1 40089U 14040D   25281.79951299  .00005445  00000+0  61909-3 0  9994
2 40089  47.0005 208.2306 0029516  15.9649 344.2172 14.87068540607130
ORBCOMM FM104           
1 40090U 14040E   25281.92027442  .00001039  00000+0  26705-3 0  9995
2 40090  47.0044 234.9861 0016552   1.7451 358.3489 14.56837025597208
